{"fetched_at":"2026-07-16T17:46:44.456Z","source":"https://celestrak.org/NORAD/elements/gp.php?NAME=JILIN&FORMAT=JSON","constellation":"jilin-1-gaofen","records":[{"OBJECT_NAME":"JILIN-1 GAOFEN 3A","OBJECT_ID":"2019-032C","EPOCH":"2026-07-16T06:42:02.065248","CLASSIFICATION_TYPE":"U","MEAN_MOTION":15.33202179,"ECCENTRICITY":0.00047746,"INCLINATION":44.9725,"RA_OF_ASC_NODE":196.7503,"ARG_OF_PERICENTER":112.5231,"MEAN_ANOMALY":247.616,"EPHEMERIS_TYPE":0,"NORAD_CAT_ID":44312,"ELEMENT_SET_NO":999,"REV_AT_EPOCH":39230,"BSTAR":0.00017924706,"MEAN_MOTION_DOT":0.00005554,"MEAN_MOTION_DDOT":0},{"OBJECT_NAME":"JILIN-1 GAOFEN 2A","OBJECT_ID":"2019-075A","EPOCH":"2026-07-16T06:01:02.277984","CLASSIFICATION_TYPE":"U","MEAN_MOTION":15.40030083,"ECCENTRICITY":0.00050734,"INCLINATION":97.4963,"RA_OF_ASC_NODE":281.7343,"ARG_OF_PERICENTER":351.0624,"MEAN_ANOMALY":9.0531,"EPHEMERIS_TYPE":0,"NORAD_CAT_ID":44777,"ELEMENT_SET_NO":999,"REV_AT_EPOCH":36935,"BSTAR":0.00018907773,"MEAN_MOTION_DOT":0.00007466,"MEAN_MOTION_DDOT":0},{"OBJECT_NAME":"JILIN-1 GAOFEN 2B","OBJECT_ID":"2019-086A","EPOCH":"2026-07-16T07:03:17.209152","CLASSIFICATION_TYPE":"U","MEAN_MOTION":15.21006088,"ECCENTRICITY":0.00133292,"INCLINATION":97.4872,"RA_OF_ASC_NODE":269.1064,"ARG_OF_PERICENTER":211.6217,"MEAN_ANOMALY":148.4219,"EPHEMERIS_TYPE":0,"NORAD_CAT_ID":44836,"ELEMENT_SET_NO":999,"REV_AT_EPOCH":36491,"BSTAR":0.00014077609,"MEAN_MOTION_DOT":0.00003058,"MEAN_MOTION_DDOT":0},{"OBJECT_NAME":"JILIN-1 GAOFEN 3E","OBJECT_ID":"2020-065D","EPOCH":"2026-07-16T05:47:55.767552","CLASSIFICATION_TYPE":"U","MEAN_MOTION":15.67329041,"ECCENTRICITY":0.00101056,"INCLINATION":97.2205,"RA_OF_ASC_NODE":250.5957,"ARG_OF_PERICENTER":69.0036,"MEAN_ANOMALY":291.2306,"EPHEMERIS_TYPE":0,"NORAD_CAT_ID":46457,"ELEMENT_SET_NO":999,"REV_AT_EPOCH":32430,"BSTAR":0.00043962068,"MEAN_MOTION_DOT":0.00047497,"MEAN_MOTION_DDOT":0},{"OBJECT_NAME":"JILIN-1 GAOFEN 3F","OBJECT_ID":"2020-065E","EPOCH":"2026-07-16T06:12:06.672384","CLASSIFICATION_TYPE":"U","MEAN_MOTION":15.64029065,"ECCENTRICITY":0.00113541,"INCLINATION":97.2163,"RA_OF_ASC_NODE":247.7976,"ARG_OF_PERICENTER":54.4857,"MEAN_ANOMALY":305.746,"EPHEMERIS_TYPE":0,"NORAD_CAT_ID":46458,"ELEMENT_SET_NO":999,"REV_AT_EPOCH":32424,"BSTAR":0.00040786719,"MEAN_MOTION_DOT":0.00038611,"MEAN_MOTION_DDOT":0},{"OBJECT_NAME":"JILIN-1 GAOFEN 3G","OBJECT_ID":"2020-065F","EPOCH":"2026-07-16T04:47:00.760704","CLASSIFICATION_TYPE":"U","MEAN_MOTION":15.77101677,"ECCENTRICITY":0.00054542,"INCLINATION":97.2219,"RA_OF_ASC_NODE":255.0808,"ARG_OF_PERICENTER":268.2043,"MEAN_ANOMALY":91.8599,"EPHEMERIS_TYPE":0,"NORAD_CAT_ID":46459,"ELEMENT_SET_NO":999,"REV_AT_EPOCH":32450,"BSTAR":0.00050360617,"MEAN_MOTION_DOT":0.00082374,"MEAN_MOTION_DDOT":0},{"OBJECT_NAME":"JILIN-1 GAOFEN 3H","OBJECT_ID":"2020-065G","EPOCH":"2026-07-16T05:53:56.146272","CLASSIFICATION_TYPE":"U","MEAN_MOTION":15.72405115,"ECCENTRICITY":0.000657,"INCLINATION":97.2166,"RA_OF_ASC_NODE":251.2559,"ARG_OF_PERICENTER":198.4369,"MEAN_ANOMALY":161.6658,"EPHEMERIS_TYPE":0,"NORAD_CAT_ID":46460,"ELEMENT_SET_NO":999,"REV_AT_EPOCH":32444,"BSTAR":0.00047039292,"MEAN_MOTION_DOT":0.000627,"MEAN_MOTION_DDOT":0},{"OBJECT_NAME":"JILIN-1 GAOFEN 2D","OBJECT_ID":"2021-086A","EPOCH":"2026-07-16T07:15:50.639616","CLASSIFICATION_TYPE":"U","MEAN_MOTION":15.10869343,"ECCENTRICITY":0.00339575,"INCLINATION":97.651,"RA_OF_ASC_NODE":320.0082,"ARG_OF_PERICENTER":46.9618,"MEAN_ANOMALY":313.4446,"EPHEMERIS_TYPE":0,"NORAD_CAT_ID":49256,"ELEMENT_SET_NO":999,"REV_AT_EPOCH":26511,"BSTAR":0.00012645164,"MEAN_MOTION_DOT":0.00002065,"MEAN_MOTION_DDOT":0},{"OBJECT_NAME":"JILIN-1 GAOFEN 2F","OBJECT_ID":"2021-097A","EPOCH":"2026-07-16T07:12:32.429376","CLASSIFICATION_TYPE":"U","MEAN_MOTION":15.0795241,"ECCENTRICITY":0.00197985,"INCLINATION":97.6735,"RA_OF_ASC_NODE":323.4359,"ARG_OF_PERICENTER":126.3003,"MEAN_ANOMALY":234.0057,"EPHEMERIS_TYPE":0,"NORAD_CAT_ID":49338,"ELEMENT_SET_NO":999,"REV_AT_EPOCH":26070,"BSTAR":0.00016778417,"MEAN_MOTION_DOT":0.00002524,"MEAN_MOTION_DDOT":0},{"OBJECT_NAME":"JILIN-1 GAOFEN 3D27","OBJECT_ID":"2022-048B","EPOCH":"2026-07-16T07:16:53.323680","CLASSIFICATION_TYPE":"U","MEAN_MOTION":15.83367273,"ECCENTRICITY":0.00053812,"INCLINATION":97.5736,"RA_OF_ASC_NODE":314.0594,"ARG_OF_PERICENTER":241.3313,"MEAN_ANOMALY":118.7415,"EPHEMERIS_TYPE":0,"NORAD_CAT_ID":52444,"ELEMENT_SET_NO":999,"REV_AT_EPOCH":23407,"BSTAR":0.00058856953,"MEAN_MOTION_DOT":0.00128703,"MEAN_MOTION_DDOT":0},{"OBJECT_NAME":"JILIN-1 GAOFEN 3D28","OBJECT_ID":"2022-048C","EPOCH":"2026-07-16T07:02:36.190752","CLASSIFICATION_TYPE":"U","MEAN_MOTION":15.8850783,"ECCENTRICITY":0.00050536,"INCLINATION":97.5663,"RA_OF_ASC_NODE":314.3583,"ARG_OF_PERICENTER":240.1272,"MEAN_ANOMALY":119.9498,"EPHEMERIS_TYPE":0,"NORAD_CAT_ID":52445,"ELEMENT_SET_NO":999,"REV_AT_EPOCH":23413,"BSTAR":0.00066455301,"MEAN_MOTION_DOT":0.00182926,"MEAN_MOTION_DDOT":0.000014108159},{"OBJECT_NAME":"JILIN-1 GAOFEN 3D29","OBJECT_ID":"2022-048D","EPOCH":"2026-07-16T06:54:58.312224","CLASSIFICATION_TYPE":"U","MEAN_MOTION":15.83572759,"ECCENTRICITY":0.00044998,"INCLINATION":97.5728,"RA_OF_ASC_NODE":314.4089,"ARG_OF_PERICENTER":224.5041,"MEAN_ANOMALY":135.5867,"EPHEMERIS_TYPE":0,"NORAD_CAT_ID":52446,"ELEMENT_SET_NO":999,"REV_AT_EPOCH":23409,"BSTAR":0.00057144616,"MEAN_MOTION_DOT":0.00126091,"MEAN_MOTION_DDOT":0},{"OBJECT_NAME":"JILIN-1 GAOFEN 3D31","OBJECT_ID":"2022-048F","EPOCH":"2026-07-16T04:24:29.553696","CLASSIFICATION_TYPE":"U","MEAN_MOTION":15.94518804,"ECCENTRICITY":0.00057384,"INCLINATION":97.5709,"RA_OF_ASC_NODE":315.6596,"ARG_OF_PERICENTER":241.8182,"MEAN_ANOMALY":118.2514,"EPHEMERIS_TYPE":0,"NORAD_CAT_ID":52448,"ELEMENT_SET_NO":999,"REV_AT_EPOCH":23418,"BSTAR":0.00071732084,"MEAN_MOTION_DOT":0.00269009,"MEAN_MOTION_DDOT":0.00003013873},{"OBJECT_NAME":"JILIN-1 GAOFEN 03D09","OBJECT_ID":"2022-098B","EPOCH":"2026-07-16T07:17:07.912320","CLASSIFICATION_TYPE":"U","MEAN_MOTION":15.70380915,"ECCENTRICITY":0.00035875,"INCLINATION":97.5637,"RA_OF_ASC_NODE":329.2477,"ARG_OF_PERICENTER":228.5058,"MEAN_ANOMALY":131.5896,"EPHEMERIS_TYPE":0,"NORAD_CAT_ID":53445,"ELEMENT_SET_NO":999,"REV_AT_EPOCH":21919,"BSTAR":0.00038799012,"MEAN_MOTION_DOT":0.00047366,"MEAN_MOTION_DDOT":0},{"OBJECT_NAME":"JILIN-1 GAOFEN 03D43","OBJECT_ID":"2022-098E","EPOCH":"2026-07-16T08:10:17.737248","CLASSIFICATION_TYPE":"U","MEAN_MOTION":15.74167382,"ECCENTRICITY":0.00037466,"INCLINATION":97.5618,"RA_OF_ASC_NODE":330.4549,"ARG_OF_PERICENTER":223.4577,"MEAN_ANOMALY":136.6392,"EPHEMERIS_TYPE":0,"NORAD_CAT_ID":53448,"ELEMENT_SET_NO":999,"REV_AT_EPOCH":21927,"BSTAR":0.00044097199,"MEAN_MOTION_DOT":0.00063301,"MEAN_MOTION_DDOT":0},{"OBJECT_NAME":"JILIN-1 GAOFEN 03D08","OBJECT_ID":"2022-155A","EPOCH":"2026-07-16T07:12:27.057888","CLASSIFICATION_TYPE":"U","MEAN_MOTION":15.67645711,"ECCENTRICITY":0.00043336,"INCLINATION":97.624,"RA_OF_ASC_NODE":345.1025,"ARG_OF_PERICENTER":223.95,"MEAN_ANOMALY":136.1416,"EPHEMERIS_TYPE":0,"NORAD_CAT_ID":54251,"ELEMENT_SET_NO":999,"REV_AT_EPOCH":20437,"BSTAR":0.00036961074,"MEAN_MOTION_DOT":0.00040301,"MEAN_MOTION_DDOT":0}]}
