JILIN-1 GAOFEN 3A       
1 44312U 19032C   26197.27919057  .00005554  00000+0  17925-3 0  9999
2 44312  44.9725 196.7503 0004774 112.5231 247.6160 15.33202179392301
JILIN-1 GAOFEN 2A       
1 44777U 19075A   26197.25072081  .00007466  00000+0  18908-3 0  9992
2 44777  97.4963 281.7343 0005073 351.0624   9.0531 15.40030083369351
JILIN-1 GAOFEN 2B       
1 44836U 19086A   26197.29394918  .00003058  00000+0  14078-3 0  9997
2 44836  97.4872 269.1064 0013329 211.6217 148.4219 15.21006088364913
JILIN-1 GAOFEN 3E       
1 46457U 20065D   26197.24161768  .00047497  00000+0  43962-3 0  9996
2 46457  97.2205 250.5957 0010105  69.0036 291.2306 15.67329041324300
JILIN-1 GAOFEN 3F       
1 46458U 20065E   26197.25841056  .00038611  00000+0  40787-3 0  9993
2 46458  97.2163 247.7976 0011354  54.4857 305.7460 15.64029065324244
JILIN-1 GAOFEN 3G       
1 46459U 20065F   26197.19931436  .00082374  00000+0  50361-3 0  9993
2 46459  97.2219 255.0808 0005454 268.2043  91.8599 15.77101677324508
JILIN-1 GAOFEN 3H       
1 46460U 20065G   26197.24578873  .00062700  00000+0  47039-3 0  9992
2 46460  97.2166 251.2559 0006570 198.4369 161.6658 15.72405115324441
JILIN-1 GAOFEN 2D       
1 49256U 21086A   26197.30266944  .00002065  00000+0  12645-3 0  9995
2 49256  97.6510 320.0082 0033957  46.9618 313.4446 15.10869343265112
JILIN-1 GAOFEN 2F       
1 49338U 21097A   26197.30037534  .00002524  00000+0  16778-3 0  9990
2 49338  97.6735 323.4359 0019798 126.3003 234.0057 15.07952410260704
JILIN-1 GAOFEN 3D27     
1 52444U 22048B   26197.30339495  .00128703  00000+0  58857-3 0  9992
2 52444  97.5736 314.0594 0005381 241.3313 118.7415 15.83367273234076
JILIN-1 GAOFEN 3D28     
1 52445U 22048C   26197.29347443  .00182926  14108-4  66455-3 0  9992
2 52445  97.5663 314.3583 0005053 240.1272 119.9498 15.88507830234135
JILIN-1 GAOFEN 3D29     
1 52446U 22048D   26197.28817491  .00126091  00000+0  57145-3 0  9995
2 52446  97.5728 314.4089 0004499 224.5041 135.5867 15.83572759234099
JILIN-1 GAOFEN 3D31     
1 52448U 22048F   26197.18367539  .00269009  30139-4  71732-3 0  9995
2 52448  97.5709 315.6596 0005738 241.8182 118.2514 15.94518804234181
JILIN-1 GAOFEN 03D09    
1 53445U 22098B   26197.30356380  .00047366  00000+0  38799-3 0  9999
2 53445  97.5637 329.2477 0003587 228.5058 131.5896 15.70380915219191
JILIN-1 GAOFEN 03D43    
1 53448U 22098E   26197.34048307  .00063301  00000+0  44097-3 0  9998
2 53448  97.5618 330.4549 0003746 223.4577 136.6392 15.74167382219275
JILIN-1 GAOFEN 03D08    
1 54251U 22155A   26197.30031317  .00040301  00000+0  36961-3 0  9990
2 54251  97.6240 345.1025 0004333 223.9500 136.1416 15.67645711204372
